#dP2021 11 16  0  0  0.00000000      97 __u+U IGS14 FIT  IAC
## 2184 172800.00000000   900.00000000 59534 0.0000000000000
+  121   C01C02C03C04C05C06C07C08C09C10C11C12C13C14C16C19C20
+        C21C22C23C24C25C26C27C28C29C30C32C33C34C35C36C37C38
+        C39C40C41C42C43C44C45C46C60E01E02E03E04E05E07E08E09
+        E11E12E13E14E15E18E19E21E24E25E27E30E31E33E36G01G02
+        G03G04G05G06G07G08G09G10G12G13G14G15G17G18G19G20G21
+        G22G23G24G25G26G27G28G29G30G31G32J01J02J03J07R01R02
+        R03R04R05R07R08R09R11R12R13R14R15R16R17R18R19R20R21
+        R22R24  0  0  0  0  0  0  0  0  0  0  0  0  0  0  0
++         0  0  0  0  0  0  0  0  0  0  0  0  0  0  0  0  0
++         0  0  0  0  0  0  0  0  0  0  0  0  0  0  0  0  0
++         0  0  0  0  0  0  0  0  0  0  0  0  0  0  0  0  0
++         0  0  0  0  0  0  0  0  0  0  0  0  0  0  0  0  0
++         0  0  0  0  0  0  0  0  0  0  0  0  0  0  0  0  0
++         0  0  0  0  0  0  0  0  0  0  0  0  0  0  0  0  0
++         0  0  0  0  0  0  0  0  0  0  0  0  0  0  0  0  0
++         0  0  0  0  0  0  0  0  0  0  0  0  0  0  0  0  0
%c M  cc GPS ccc cccc cccc cccc cccc ccccc ccccc ccccc ccccc
%c cc cc ccc ccc cccc cccc cccc cccc ccccc ccccc ccccc ccccc
%f  1.2500000  1.025000000  0.00000000000  0.000000000000000
%f  0.0000000  0.000000000  0.00000000000  0.000000000000000
%i    0    0    0    0      0      0      0      0         0
%i    0    0    0    0      0      0      0      0         0
/* INFORMATION & ANALYSIS CENTER (IAC)            FINAL DATA
/* S/V CLOCKS ARE ALIGNED TO GNSS TIME                      
/* G:C1WC2W R:C1PC2P E:C1XC5X C:C2IC6I J:C1CC2S             
/* PCV:IGS14_2163 OL/AL:FES2004  NONE     YN ORB:CoN CLK:CoN
*  2021 11 16  3  0  0.00000000
PC01 -34296.454562  24482.982169    -58.630366   -443.204111
PC02   4414.957546  41960.109359   1045.263127    155.928303
PC03 -14865.544808  39477.599245    608.989038    180.037980
PC04 -39640.020917  14314.699979   -352.136797    170.682603
PC05  21861.391146  36043.907955   1372.747901    303.186372
PC06  -3454.354231  38944.498165  16010.941658    493.894429
PC07  -9893.840675  25127.079156 -32386.193561    232.785458
PC08 -18699.839528  32862.936426  18509.069975   -766.315347
PC09    364.504648  41456.096504   9238.963437   -270.490634
PC10   -581.955587  26816.148630 -32242.181550     12.479797
PC11  15786.173831   3626.446875  22787.427676    693.124522
PC12  12400.393366  21583.490273  12630.640171    723.723964
PC13 -12662.207836  33104.357836  22719.754961    476.509208
PC14  26822.922451   4516.569420  -6105.867071    533.917953
PC16  -6444.478296  36474.747855  20487.601268   -720.817945
PC19 -23646.703266   2705.531470  14593.736170    934.757093
PC20 -26074.539533  -9856.552768  -1540.991907   -790.686931
PC21  12926.256470  17261.196214  17711.181783   -937.012196
PC22  -7467.054028  14145.375186  22860.105927   -969.275800
PC23  15187.654628 -21651.669152   8925.381828   -965.402871
PC24  17694.460603   4649.828888 -21087.033436   -960.952314
PC25  23153.494364 -13386.955294  -8015.485730   -824.089402
PC26   3162.432863  17730.665161 -21314.806986    821.187459
PC27  -7730.119560 -26494.209874  -4104.950420    630.166661
PC28   4792.605664 -24166.308059  13120.793171     -2.182780
PC29 -14229.701932   8113.868809 -22595.059276    474.873920
PC30 -16087.110783 -13366.658596 -18467.061422    486.366543
PC32 -13005.842407 -17174.990070 -17732.479727   -961.720943
PC33  23678.066461  -2784.188546 -14499.188484   -972.109477
PC34  16238.876097  12519.010793  18932.190398   -535.936598
PC35  -4301.953390  24071.495400 -13475.349620      2.712928
PC36 -23492.521318  12478.997266   8444.816582   -804.959472
PC37  -1688.908209 -18387.254181  20948.128043   -891.927052
PC38 -24085.127399  33153.774905   9531.600670    189.799278
PC39  -8087.348053  33222.626137  24764.809285     34.023425
PC40 -15282.226756  18247.112711 -34819.720474    218.099863
PC41   7841.982954 -14028.586445 -22772.446234   -916.105796
PC42  25777.273172  10394.193156   2473.360271   -943.195099
PC43  14587.984994  -7384.720304  22608.843604   -960.464821
PC44   8525.223891  26306.421653   3854.613892    467.227754
PC45 -15030.166111  21648.047215  -9130.169426    602.004983
PC46 -18382.762722  -3459.100380  20701.252929    -10.665676
PC60   7313.720073  41512.764566   -526.733282     -0.451259
PE01  -3088.004505 -16303.799429  24518.344196   -518.012137
PE02   3292.634276  16254.192464 -24513.219054    260.587818
PE03  11426.058080  24609.583912  11810.249079   -496.426567
PE04 -22688.726634 -17942.646900   6273.473491   -900.549415
PE05  -6761.952381  16950.138600  23299.086440   -233.636471
PE07  20780.342795    482.258499 -21075.203985   -607.510197
PE08  22843.289912  17592.841845  -6686.145779   5904.333632
PE09 -20602.509583   -300.464057  21249.903052   5462.149873
PE11 -17674.946056  10188.932408 -21452.833874   5075.136300
PE12 -12442.665416 -12420.536845 -23809.558070   4907.826087
PE13  17584.604479  -9641.807083  21779.870480    423.738030
PE14   8426.530857 -14629.621564  17761.105906  -1641.766272
PE15  12377.486142  12440.836345  23844.728389    780.711654
PE18 -17022.838775  11047.487528 -24478.014842  -1804.604160
PE19  -9372.777989 -24409.086635 -13873.289512    428.660992
PE21  17325.026424 -16215.067334  17704.023368   -699.805521
PE24 -28976.385501   5929.431054    715.430299  -1228.638623
PE25 -17538.537226  16143.663906 -17531.566074   -553.704684
PE27  28819.457760  -6779.384491    360.234107   -165.854315
PE30  22404.315166   7469.979077 -17859.241580    -33.620586
PE31 -23261.267291  -6590.463249  17085.777887   -488.126158
PE33    120.903449 -27128.749130 -11836.088041   -462.505150
PE36 -12426.958090  25957.470681  -6912.210759   -290.725960
PG01  13931.844570 -22010.576997   3871.933326    509.667470
PG02 -16524.787638   4793.716675 -19603.860639   -642.167168
PG03  16262.145462 -12649.977043 -16811.128082    -14.636159
PG04   6248.824798 -16340.114387 -19962.984096   -201.744463
PG05 -25712.059267   5616.220064   3974.950906    -61.215643
PG06 -10124.493641 -11694.780330 -21516.120347    118.946410
PG07   3282.732412 -23938.734879  10813.203927    278.593251
PG08  14336.082520  -5652.445284  21649.190550    -44.327614
PG09  -4597.005142 -22702.687186 -13044.229061   -361.679098
PG10  14404.142733  12010.848779  19045.917579   -247.098437
PG12 -18350.240899  10886.263297 -15984.129193   -126.960728
PG13 -16949.822894  -3045.301119  20110.526374    215.244284
PG14 -13697.477158 -12899.959053  18766.835169    -39.020096
PG15 -13806.725794   7906.877335  20892.903891   -106.159546
PG17 -12805.008583 -23245.435036   1108.264907    534.277992
PG18  -3270.038835  23642.476990  11539.250635    294.930089
PG19 -16584.269450 -19170.059696  -8480.100509     79.813923
PG20 -25426.640959    327.499754  -7203.503478    518.101975
PG21  16476.092385 -16104.238789  13372.380829    151.126987
PG22  22114.118444 -10925.868242  -9401.019933   -463.808627
PG23   1561.747802  15007.671005  21837.343312     32.484899
PG24 -14708.685231  20056.334671   8436.008893    267.433493
PG25  -6900.584591  15194.512702 -20870.979517    241.251002
PG26  23180.628131   5968.329817 -11884.928047    155.763459
PG27  18593.553437   5555.748083  18120.417718   -219.696653
PG28 -19629.860358 -10596.326267  14792.149733    461.984815
PG29   -209.036721  21186.412393 -16014.509999   -441.189168
PG30  -5160.079453 -18834.260004  17963.929519   -491.708291
PG31  12327.932951   9416.153038 -21633.498283   -150.369914
PG32  16473.389256  20782.335509  -2631.507075    -22.544511
PJ01 -28183.395737  19730.416029  29351.732891    134.170186
PJ02 -34702.166667  19205.728673  -9745.240298     -0.113956
PJ03 -19988.837988  28234.778706 -19494.557057     -6.394472
PJ07 -25395.576991  33648.000411     33.002203      1.335353
PR01  -8836.047893   7664.483233  22662.057377     88.187293
PR02  11009.836091  15535.519005  17043.483923    500.211216
PR03  21937.927620  13017.600095   1292.713777     46.518666
PR04  20329.076026   3412.986321 -15015.179648    114.425559
PR05   7565.151969  -8081.578059 -22979.217240     82.548454
PR07 -22087.346668 -12694.671969   -488.543267    -39.930113
PR08 -20311.768747  -3184.470906  15125.633441    -62.053635
PR09   1167.615907 -13313.594855  21730.852086     23.806317
PR11 -22327.837965   9199.874033   8244.554796     49.755350
PR12 -17143.088770  15931.511940 -10093.132291    278.784990
PR13  -2349.381240  13526.361447 -21510.362770    -63.605907
PR14  14830.792944   2644.029457 -20567.082083     71.065760
PR15  22529.138558  -9286.695580  -7523.325334    100.169755
PR16  15936.840738 -16576.224612  11167.507740    -25.058858
PR17   8774.344248  14446.583161  19098.815719    475.307952
PR18  10346.119872  -3448.356489  23074.872006     97.329548
PR19   7394.819359 -18777.866289  15612.616354   -167.161705
PR20   -958.266251 -25204.492363  -3675.711376    -59.424965
PR21  -8965.056896 -13285.797683 -19851.403692   -254.920462
PR22 -10243.209097   4601.711924 -22921.531926   -145.452732
PR24   1898.150050  25046.710017   4399.004211     67.148245
EOF
